{"fetched_at":"2026-03-29T16:36:15Z","count":15609,"tles":[{"name":"STARLINK-5212","line1":"1 54075U 22136AA  26087.79361663  .00000051  00000+0  21306-4 0  9990","line2":"2 54075  53.2162 252.9774 0001209  88.4123 271.7008 15.08846701189807","category":"Starlink"}]}