{
  "norad_id": 54075,
  "name": "STARLINK-5212",
  "history": [
    {
      "epoch": "2026-03-28T19:02:48.476832Z",
      "apogee_km": 540.5597602766047,
      "perigee_km": 538.8860532507624,
      "latitude_deg": 2.5701020515776903e-05,
      "longitude_deg": 141.0664721806106,
      "height_km": 540.5955053657476,
      "semi_major_axis_km": 6917.859906763683,
      "eccentricity": 0.00012097,
      "inclination_deg": 53.2162,
      "raan_deg": 252.9774,
      "arg_perigee_deg": 88.4123,
      "mean_anomaly_deg": 271.7008,
      "mean_motion_rev_day": 15.08846701
    }
  ]
}